CCSDS_OMM_VERS = 2.0
CREATION_DATE  = 
ORIGINATOR     = 

OBJECT_NAME    = STARLINK-36274
OBJECT_ID      = 2026-054V
CENTER_NAME    = EARTH
REF_FRAME      = TEME
TIME_SYSTEM    = UTC
MEAN_ELEMENT_THEORY = SGP/SGP4

EPOCH          = 2026-04-04T17:56:49.087968
MEAN_MOTION    = 15.75226662
ECCENTRICITY   = .0001135
INCLINATION    = 53.1586
RA_OF_ASC_NODE = 182.1890
ARG_OF_PERICENTER = 130.3919
MEAN_ANOMALY   = 229.7200

EPHEMERIS_TYPE = 0
CLASSIFICATION_TYPE = U
NORAD_CAT_ID   = 68251
ELEMENT_SET_NO = 999
REV_AT_EPOCH   = 289
BSTAR          = .95313E-3
MEAN_MOTION_DOT = .147965E-2
MEAN_MOTION_DDOT = 0

CCSDS_OMM_VERS = 2.0
CREATION_DATE  = 
ORIGINATOR     = 

OBJECT_NAME    = STARLINK-37085
OBJECT_ID      = 2026-054W
CENTER_NAME    = EARTH
REF_FRAME      = TEME
TIME_SYSTEM    = UTC
MEAN_ELEMENT_THEORY = SGP/SGP4

EPOCH          = 2026-04-04T15:50:53.788128
MEAN_MOTION    = 15.80848000
ECCENTRICITY   = .0000953
INCLINATION    = 53.1587
RA_OF_ASC_NODE = 182.3443
ARG_OF_PERICENTER = 75.6763
MEAN_ANOMALY   = 284.4366

EPHEMERIS_TYPE = 0
CLASSIFICATION_TYPE = U
NORAD_CAT_ID   = 68252
ELEMENT_SET_NO = 999
REV_AT_EPOCH   = 288
BSTAR          = .20654E-3
MEAN_MOTION_DOT = .40209E-3
MEAN_MOTION_DDOT = 0

CCSDS_OMM_VERS = 2.0
CREATION_DATE  = 
ORIGINATOR     = 

OBJECT_NAME    = STARLINK-37086
OBJECT_ID      = 2026-054X
CENTER_NAME    = EARTH
REF_FRAME      = TEME
TIME_SYSTEM    = UTC
MEAN_ELEMENT_THEORY = SGP/SGP4

EPOCH          = 2026-04-04T14:18:47.076480
MEAN_MOTION    = 15.80814691
ECCENTRICITY   = .0002318
INCLINATION    = 53.1588
RA_OF_ASC_NODE = 182.6570
ARG_OF_PERICENTER = 48.7927
MEAN_ANOMALY   = 311.3295

EPHEMERIS_TYPE = 0
CLASSIFICATION_TYPE = U
NORAD_CAT_ID   = 68253
ELEMENT_SET_NO = 999
REV_AT_EPOCH   = 287
BSTAR          = -.18515E-3
MEAN_MOTION_DOT = -.36996E-3
MEAN_MOTION_DDOT = 0

CCSDS_OMM_VERS = 2.0
CREATION_DATE  = 
ORIGINATOR     = 

OBJECT_NAME    = STARLINK-37084
OBJECT_ID      = 2026-054Y
CENTER_NAME    = EARTH
REF_FRAME      = TEME
TIME_SYSTEM    = UTC
MEAN_ELEMENT_THEORY = SGP/SGP4

EPOCH          = 2026-04-04T17:18:42.206112
MEAN_MOTION    = 15.80841779
ECCENTRICITY   = .0002255
INCLINATION    = 53.1586
RA_OF_ASC_NODE = 182.0132
ARG_OF_PERICENTER = 43.9779
MEAN_ANOMALY   = 316.1422

EPHEMERIS_TYPE = 0
CLASSIFICATION_TYPE = U
NORAD_CAT_ID   = 68254
ELEMENT_SET_NO = 999
REV_AT_EPOCH   = 289
BSTAR          = .62578E-3
MEAN_MOTION_DOT = .124432E-2
MEAN_MOTION_DDOT = 0

CCSDS_OMM_VERS = 2.0
CREATION_DATE  = 
ORIGINATOR     = 

OBJECT_NAME    = STARLINK-37075
OBJECT_ID      = 2026-054Z
CENTER_NAME    = EARTH
REF_FRAME      = TEME
TIME_SYSTEM    = UTC
MEAN_ELEMENT_THEORY = SGP/SGP4

EPOCH          = 2026-04-04T15:48:43.028640
MEAN_MOTION    = 15.80929334
ECCENTRICITY   = .0001522
INCLINATION    = 53.1585
RA_OF_ASC_NODE = 182.3347
ARG_OF_PERICENTER = 72.1791
MEAN_ANOMALY   = 287.9397

EPHEMERIS_TYPE = 0
CLASSIFICATION_TYPE = U
NORAD_CAT_ID   = 68255
ELEMENT_SET_NO = 999
REV_AT_EPOCH   = 288
BSTAR          = .51663E-3
MEAN_MOTION_DOT = .102756E-2
MEAN_MOTION_DDOT = 0

CCSDS_OMM_VERS = 2.0
CREATION_DATE  = 
ORIGINATOR     = 

OBJECT_NAME    = STARLINK-36333
OBJECT_ID      = 2026-054AA
CENTER_NAME    = EARTH
REF_FRAME      = TEME
TIME_SYSTEM    = UTC
MEAN_ELEMENT_THEORY = SGP/SGP4

EPOCH          = 2026-04-04T17:17:37.300704
MEAN_MOTION    = 15.80838788
ECCENTRICITY   = .0001477
INCLINATION    = 53.1586
RA_OF_ASC_NODE = 182.0079
ARG_OF_PERICENTER = 44.3479
MEAN_ANOMALY   = 315.7662

EPHEMERIS_TYPE = 0
CLASSIFICATION_TYPE = U
NORAD_CAT_ID   = 68256
ELEMENT_SET_NO = 999
REV_AT_EPOCH   = 289
BSTAR          = .54725E-3
MEAN_MOTION_DOT = .108506E-2
MEAN_MOTION_DDOT = 0

CCSDS_OMM_VERS = 2.0
CREATION_DATE  = 
ORIGINATOR     = 

OBJECT_NAME    = STARLINK-36745
OBJECT_ID      = 2026-054AB
CENTER_NAME    = EARTH
REF_FRAME      = TEME
TIME_SYSTEM    = UTC
MEAN_ELEMENT_THEORY = SGP/SGP4

EPOCH          = 2026-04-04T17:43:44.871456
MEAN_MOTION    = 15.75224228
ECCENTRICITY   = .0001891
INCLINATION    = 53.1582
RA_OF_ASC_NODE = 182.1282
ARG_OF_PERICENTER = 33.1379
MEAN_ANOMALY   = 326.9760

EPHEMERIS_TYPE = 0
CLASSIFICATION_TYPE = U
NORAD_CAT_ID   = 68257
ELEMENT_SET_NO = 999
REV_AT_EPOCH   = 289
BSTAR          = .94964E-3
MEAN_MOTION_DOT = .147399E-2
MEAN_MOTION_DDOT = 0

CCSDS_OMM_VERS = 2.0
CREATION_DATE  = 
ORIGINATOR     = 

OBJECT_NAME    = STARLINK-36890
OBJECT_ID      = 2026-054AC
CENTER_NAME    = EARTH
REF_FRAME      = TEME
TIME_SYSTEM    = UTC
MEAN_ELEMENT_THEORY = SGP/SGP4

EPOCH          = 2026-04-04T17:14:22.572384
MEAN_MOTION    = 15.80839731
ECCENTRICITY   = .0001204
INCLINATION    = 53.1586
RA_OF_ASC_NODE = 181.9930
ARG_OF_PERICENTER = 47.5669
MEAN_ANOMALY   = 312.5455

EPHEMERIS_TYPE = 0
CLASSIFICATION_TYPE = U
NORAD_CAT_ID   = 68258
ELEMENT_SET_NO = 999
REV_AT_EPOCH   = 289
BSTAR          = .38154E-3
MEAN_MOTION_DOT = .75146E-3
MEAN_MOTION_DDOT = 0

CCSDS_OMM_VERS = 2.0
CREATION_DATE  = 
ORIGINATOR     = 

OBJECT_NAME    = STARLINK-36323
OBJECT_ID      = 2026-054AD
CENTER_NAME    = EARTH
REF_FRAME      = TEME
TIME_SYSTEM    = UTC
MEAN_ELEMENT_THEORY = SGP/SGP4

EPOCH          = 2026-04-04T20:00:01.999008
MEAN_MOTION    = 15.77119442
ECCENTRICITY   = .0001012
INCLINATION    = 53.1591
RA_OF_ASC_NODE = 181.4473
ARG_OF_PERICENTER = 69.2243
MEAN_ANOMALY   = 211.3029

EPHEMERIS_TYPE = 0
CLASSIFICATION_TYPE = U
NORAD_CAT_ID   = 68259
ELEMENT_SET_NO = 999
REV_AT_EPOCH   = 415
BSTAR          = -.13072E-1
MEAN_MOTION_DOT = -.1896699E-1
MEAN_MOTION_DDOT = 0

CCSDS_OMM_VERS = 2.0
CREATION_DATE  = 
ORIGINATOR     = 

OBJECT_NAME    = STARLINK-37056
OBJECT_ID      = 2026-054AE
CENTER_NAME    = EARTH
REF_FRAME      = TEME
TIME_SYSTEM    = UTC
MEAN_ELEMENT_THEORY = SGP/SGP4

EPOCH          = 2026-04-04T17:13:17.947776
MEAN_MOTION    = 15.80844630
ECCENTRICITY   = .000167
INCLINATION    = 53.1584
RA_OF_ASC_NODE = 181.9870
ARG_OF_PERICENTER = 67.5564
MEAN_ANOMALY   = 292.5636

EPHEMERIS_TYPE = 0
CLASSIFICATION_TYPE = U
NORAD_CAT_ID   = 68260
ELEMENT_SET_NO = 999
REV_AT_EPOCH   = 289
BSTAR          = .48373E-3
MEAN_MOTION_DOT = .95713E-3
MEAN_MOTION_DDOT = 0

CCSDS_OMM_VERS = 2.0
CREATION_DATE  = 
ORIGINATOR     = 

OBJECT_NAME    = TEN-KOH 2
OBJECT_ID      = 2025-241B
CENTER_NAME    = EARTH
REF_FRAME      = TEME
TIME_SYSTEM    = UTC
MEAN_ELEMENT_THEORY = SGP/SGP4

EPOCH          = 2026-04-04T20:55:56.834112
MEAN_MOTION    = 15.22919506
ECCENTRICITY   = .0004637
INCLINATION    = 51.6396
RA_OF_ASC_NODE = 308.3823
ARG_OF_PERICENTER = 253.9803
MEAN_ANOMALY   = 106.0664

EPHEMERIS_TYPE = 0
CLASSIFICATION_TYPE = U
NORAD_CAT_ID   = 68261
ELEMENT_SET_NO = 999
REV_AT_EPOCH   = 373
BSTAR          = .46445E-3
MEAN_MOTION_DOT = .1073E-3
MEAN_MOTION_DDOT = 0

CCSDS_OMM_VERS = 2.0
CREATION_DATE  = 
ORIGINATOR     = 

OBJECT_NAME    = STARLINK-37162
OBJECT_ID      = 2026-055A
CENTER_NAME    = EARTH
REF_FRAME      = TEME
TIME_SYSTEM    = UTC
MEAN_ELEMENT_THEORY = SGP/SGP4

EPOCH          = 2026-04-04T20:00:01.999008
MEAN_MOTION    = 15.80784358
ECCENTRICITY   = .0001089
INCLINATION    = 53.1586
RA_OF_ASC_NODE = 206.2773
ARG_OF_PERICENTER = 102.2277
MEAN_ANOMALY   = 359.9461

EPHEMERIS_TYPE = 0
CLASSIFICATION_TYPE = U
NORAD_CAT_ID   = 68262
ELEMENT_SET_NO = 999
REV_AT_EPOCH   = 383
BSTAR          = .10731E-2
MEAN_MOTION_DOT = .215585E-2
MEAN_MOTION_DDOT = 0

CCSDS_OMM_VERS = 2.0
CREATION_DATE  = 
ORIGINATOR     = 

OBJECT_NAME    = STARLINK-37156
OBJECT_ID      = 2026-055B
CENTER_NAME    = EARTH
REF_FRAME      = TEME
TIME_SYSTEM    = UTC
MEAN_ELEMENT_THEORY = SGP/SGP4

EPOCH          = 2026-04-04T20:00:01.999008
MEAN_MOTION    = 15.80781791
ECCENTRICITY   = .0000948
INCLINATION    = 53.1586
RA_OF_ASC_NODE = 206.2687
ARG_OF_PERICENTER = 102.7426
MEAN_ANOMALY   = 3.6964

EPHEMERIS_TYPE = 0
CLASSIFICATION_TYPE = U
NORAD_CAT_ID   = 68263
ELEMENT_SET_NO = 999
REV_AT_EPOCH   = 383
BSTAR          = .11059E-2
MEAN_MOTION_DOT = .222337E-2
MEAN_MOTION_DDOT = 0

CCSDS_OMM_VERS = 2.0
CREATION_DATE  = 
ORIGINATOR     = 

OBJECT_NAME    = STARLINK-37163
OBJECT_ID      = 2026-055C
CENTER_NAME    = EARTH
REF_FRAME      = TEME
TIME_SYSTEM    = UTC
MEAN_ELEMENT_THEORY = SGP/SGP4

EPOCH          = 2026-04-04T20:00:01.999008
MEAN_MOTION    = 15.80781468
ECCENTRICITY   = .0000915
INCLINATION    = 53.1585
RA_OF_ASC_NODE = 206.2500
ARG_OF_PERICENTER = 103.2466
MEAN_ANOMALY   = 11.7378

EPHEMERIS_TYPE = 0
CLASSIFICATION_TYPE = U
NORAD_CAT_ID   = 68264
ELEMENT_SET_NO = 999
REV_AT_EPOCH   = 383
BSTAR          = .11071E-2
MEAN_MOTION_DOT = .22259E-2
MEAN_MOTION_DDOT = 0

CCSDS_OMM_VERS = 2.0
CREATION_DATE  = 
ORIGINATOR     = 

OBJECT_NAME    = STARLINK-37133
OBJECT_ID      = 2026-055D
CENTER_NAME    = EARTH
REF_FRAME      = TEME
TIME_SYSTEM    = UTC
MEAN_ELEMENT_THEORY = SGP/SGP4

EPOCH          = 2026-04-04T20:00:01.999008
MEAN_MOTION    = 15.80779059
ECCENTRICITY   = .0001003
INCLINATION    = 53.1586
RA_OF_ASC_NODE = 206.2593
ARG_OF_PERICENTER = 90.4944
MEAN_ANOMALY   = 20.2202

EPHEMERIS_TYPE = 0
CLASSIFICATION_TYPE = U
NORAD_CAT_ID   = 68265
ELEMENT_SET_NO = 999
REV_AT_EPOCH   = 383
BSTAR          = .1134E-2
MEAN_MOTION_DOT = .228148E-2
MEAN_MOTION_DDOT = 0

